MEAN_MOTION;ECCENTRICITY;INCLINATION;RA_OF_ASC_NODE;ARG_OF_PERICENTER;MEAN_ANOMALY;BSTAR;MEAN_MOTION_DOT;MEAN_MOTION_DDOT;TYPE
2.2635269;0.7279623;4.5019;75.8064;178.7315;50.2576;0;-2.75E-6;0;Intelsat
2.2635269;0.7279623;4.5019;75.8064;178.7315;50.2576;0;-2.75E-6;0;Intelsat
2.27809165;0.7290582;4.4795;75.9596;178.3001;135.9485;0;-2.71E-6;0;Intelsat
2.27462043;0.7286963;4.4599;76.2991;178.0542;150.86;0;-2.72E-6;0;Intelsat
2.27794491;0.7289762;4.4636;76.1522;178.2542;61.9841;0;-2.68E-6;0;Intelsat
2.27783721;0.7289625;4.4642;75.9496;178.6442;87.7236;0;-2.57E-6;0;Intelsat
2.27865241;0.7290625;4.4644;75.9572;178.6066;87.7432;0;-2.57E-6;0;Intelsat
2.27783616;0.7289635;4.4643;75.948;178.6465;87.7233;0;-2.57E-6;0;Intelsat
2.27914881;0.7285522;4.4695;75.9021;178.7049;145.3671;0;-2.55E-6;0;Intelsat
2.00912526;0.5889455;2.8592;76.6225;178.1196;206.4624;0;-2.53E-6;0;Intelsat
1.62268823;0.3780553;1.546;77.4972;177.0466;84.2574;0;-1.02E-6;0;Intelsat
1.62270398;0.3780596;1.5474;77.471;177.1016;13.4215;0;-1.01E-6;0;Intelsat
1.62270372;0.378061;1.5479;77.4581;177.1289;158.9495;0;-1.01E-6;0;Intelsat
1.62270372;0.378061;1.5479;77.4581;177.1289;158.9495;0;-1.01E-6;0;Intelsat
1.04278658;0.0256661;0.3823;94.7979;171.6229;305.569;0;-2.42E-6;0;Intelsat
1.0428612;0.0256797;0.3826;94.7785;171.7437;359.7217;0;-2.42E-6;0;Intelsat
1.04280605;0.0257001;0.3833;94.7864;171.6352;135.0711;0;-2.41E-6;0;Intelsat
1.04280879;0.0256957;0.3846;94.6902;171.735;269.8604;0;-2.38E-6;0;Intelsat
1.04279218;0.0256996;0.3868;94.7065;171.7023;276.0014;0;-2.2E-6;0;Intelsat
1.04279402;0.0256998;0.3869;94.7121;171.6979;315.3607;0;-2.17E-6;0;Intelsat
1.04280169;0.0257039;0.3883;94.7292;171.699;198.612;0;-1.97E-6;0;Intelsat
1.04281171;0.0257366;0.3884;94.7017;171.7804;282.6009;0;-1.89E-6;0;Intelsat
1.04282069;0.0257583;0.3892;94.7156;171.7646;75.6093;0;-1.74E-6;0;Intelsat
1.04281589;0.0257639;0.3906;94.6804;171.8127;325.0655;0;-1.48E-6;0;Intelsat
1.04281366;0.025787;0.3918;94.7443;171.7844;181.352;0;-1.26E-6;0;Intelsat
1.04280636;0.0258024;0.3931;94.7152;171.8119;343.5001;0;-1.1E-6;0;Intelsat
1.04280422;0.0258003;0.3937;94.7208;171.8089;108.9487;0;-9.9E-7;0;Intelsat
1.04280028;0.0257938;0.3937;94.7437;171.7767;118.8674;0;-9.8E-7;0;Intelsat
1.03565108;0.0233753;0.382;94.659;171.076;340.597;0;-4.7E-7;0;Intelsat
1.03682133;0.0225496;0.3305;93.9195;173.1703;143.3599;0;-6.1E-7;0;Intelsat
1.03734891;0.0220741;0.318;92.025;174.279;144.381;0;-6.3E-7;0;Intelsat
1.03741365;0.0222903;0.3226;92.4569;173.6883;68.996;0;-1.23E-6;0;Intelsat
1.03741365;0.0222903;0.3226;92.4569;173.6883;68.996;0;-1.23E-6;0;Intelsat
1.03263087;0.0182922;0.262;90.7028;175.4269;47.8448;0;-1.41E-6;0;Intelsat
1.03263087;0.0182922;0.262;90.7028;175.4269;47.8448;0;-1.41E-6;0;Intelsat
1.002724;3.9E-5;0.1099;114.8561;16.0144;321.2611;0;-1.23E-6;0;Intelsat
1.00148688;0.0006362;0.1121;114.7258;297.3849;12.4286;0;-9.8E-7;0;Intelsat
1.00148688;0.0006362;0.1121;114.7258;297.3849;12.4286;0;-9.8E-7;0;Intelsat
1.00229124;0.000567;0.051;93.113;29.496;126.075;0;7.1E-7;0;Intelsat
1.00271661;0.0001597;0.0527;100.3425;15.6098;159.7163;0;6.2E-7;0;Intelsat
1.00272008;0.0001521;0.0533;100.3876;11.8745;257.7294;0;6.1E-7;0;Intelsat
1.00272481;0.0001573;0.0557;100.6822;11.2231;242.1534;0;6.0E-7;0;Intelsat
1.00272482;0.0001574;0.0558;100.6812;11.2145;250.4912;0;6.0E-7;0;Intelsat
1.00273023;0.0001558;0.0581;101.0902;10.3797;273.0347;0;5.9E-7;0;Intelsat
1.00273103;0.0001557;0.0579;100.705;9.6171;359.1646;0;6.0E-7;0;Intelsat
1.00273806;0.0001632;0.0583;101.3017;8.1428;267.7822;0;5.9E-7;0;Intelsat
1.00273921;0.0001636;0.0582;100.5038;8.5206;2.6242;0;6.0E-7;0;Intelsat
1.00274198;0.0001672;0.0592;100.5715;8.5283;183.9581;0;6.0E-7;0;Intelsat
1.00274228;0.0001686;0.0596;100.6207;8.3694;261.7888;0;6.0E-7;0;Intelsat
1.00274471;0.0001712;0.0609;100.4033;9.4903;215.6747;0;6.0E-7;0;Intelsat
1.00274491;0.0001725;0.0612;100.4014;9.5668;263.6074;0;6.0E-7;0;Intelsat
1.00274706;0.0001764;0.0625;100.1294;11.2665;239.0725;0;6.0E-7;0;Intelsat
1.00274703;0.000178;0.0626;100.1295;11.3792;264.877;0;6.0E-7;0;Intelsat
1.00274768;0.0001756;0.0643;99.8906;13.6803;239.6978;0;6.0E-7;0;Intelsat
1.00274756;0.0001787;0.0645;99.8904;14.0867;281.2448;0;6.0E-7;0;Intelsat
1.00274753;0.0001757;0.0661;99.6515;16.005;221.1566;0;6.0E-7;0;Intelsat
1.00274743;0.0001792;0.0664;99.6581;15.9109;266.4306;0;6.0E-7;0;Intelsat
1.0027492;0.000182;0.0676;99.9211;18.6753;221.7142;0;6.0E-7;0;Intelsat
1.00274951;0.0001828;0.0676;99.9624;18.6485;266.1782;0;6.0E-7;0;Intelsat
1.00275149;0.0001825;0.0681;100.1089;18.8623;246.9017;0;6.1E-7;0;Intelsat
1.00275161;0.0001844;0.0677;99.4748;21.7802;348.6535;0;6.1E-7;0;Intelsat
1.00275226;0.0001768;0.0685;99.5467;21.0586;168.3847;0;6.2E-7;0;Intelsat
1.00275333;0.0001814;0.0686;100.562;19.9949;243.9178;0;6.2E-7;0;Intelsat
1.0027536;0.0001746;0.0694;100.5283;22.3445;218.4914;0;6.4E-7;0;Intelsat
1.0027536;0.0001769;0.0693;100.7632;22.1422;258.4854;0;6.3E-7;0;Intelsat
1.00275359;0.0001725;0.0699;100.9298;25.8036;204.1885;0;6.6E-7;0;Intelsat
1.00275374;0.0001743;0.07;100.947;25.717;243.3945;0;6.6E-7;0;Intelsat
1.00275418;0.0001736;0.0706;100.7163;31.0394;85.6234;0;6.7E-7;0;Intelsat
1.00275458;0.0001709;0.0715;100.7589;29.3349;258.5363;0;6.8E-7;0;Intelsat
1.0027559;0.0001692;0.0724;100.5324;30.6458;89.0094;0;7.0E-7;0;Intelsat
1.002756;0.0001656;0.0731;100.6734;28.3814;256.2759;0;7.1E-7;0;Intelsat
1.00275604;0.000171;0.0729;100.506;31.1496;351.2212;0;7.2E-7;0;Intelsat
1.00275777;0.0001679;0.0741;100.6685;30.3265;247.4603;0;7.4E-7;0;Intelsat
1.00275734;0.0001628;0.0733;100.3573;34.6235;347.1313;0;7.5E-7;0;Intelsat
1.00275764;0.0001546;0.0731;100.8561;31.7132;234.7162;0;7.6E-7;0;Intelsat
1.00275724;0.000158;0.0726;100.3485;31.972;352.6026;0;7.7E-7;0;Intelsat
1.00275652;0.0001465;0.0722;100.5883;33.0584;198.5808;0;7.8E-7;0;Intelsat
1.00275658;0.0001459;0.0723;100.4281;32.063;251.5646;0;7.8E-7;0;Intelsat
1.00275546;0.0001549;0.0718;100.468;34.6692;96.2185;0;7.9E-7;0;Intelsat
1.00275574;0.0001514;0.072;100.3983;33.1352;255.0288;0;7.9E-7;0;Intelsat
1.00275493;0.0001581;0.0711;100.4741;36.3669;329.1826;0;7.9E-7;0;Intelsat
1.00275555;0.000155;0.0703;100.7716;35.0656;272.5738;0;7.9E-7;0;Intelsat
1.00275555;0.0001575;0.0693;101.2349;37.0456;347.5363;0;7.9E-7;0;Intelsat
1.00275593;0.0001501;0.0697;100.7846;38.3605;175.5638;0;7.8E-7;0;Intelsat
1.00269227;0.0001075;0.0245;101.825;48.2917;181.6927;0;7.2E-7;0;Intelsat
1.0026935;0.0001067;0.0248;101.7884;49.0746;237.8495;0;7.1E-7;0;Intelsat
1.00269484;0.0001043;0.0268;101.2174;48.6503;182.9179;0;6.8E-7;0;Intelsat
1.00269643;0.0001037;0.0278;101.2309;49.7826;337.6942;0;6.7E-7;0;Intelsat
1.00269678;0.0001011;0.0293;100.7581;48.6111;180.7639;0;6.6E-7;0;Intelsat
1.00269845;9.91E-5;0.0306;100.9482;48.5114;346.993;0;6.5E-7;0;Intelsat
1.00269843;9.83E-5;0.0306;100.9969;49.4036;346.0521;0;6.4E-7;0;Intelsat
1.00516638;7.89E-5;0.0363;99.0835;27.5683;130.8693;0;1.2E-7;0;Intelsat
1.00521339;9.64E-5;0.0376;100.1641;29.9938;228.0903;0;-1.4E-7;0;Intelsat
1.00521549;9.51E-5;0.0323;99.0864;34.1841;282.0729;0;-1.6E-7;0;Intelsat
1.00521443;7.5E-5;0.0283;97.7649;43.1781;105.6305;0;-1.9E-7;0;Intelsat
1.00521105;8.14E-5;0.0291;97.5637;32.99;271.9045;0;-2.3E-7;0;Intelsat
1.00521131;8.44E-5;0.0284;95.8447;32.978;335.9661;0;-2.4E-7;0;Intelsat
1.00519924;7.98E-5;0.0296;89.3236;17.7724;270.092;0;-2.9E-7;0;Intelsat
1.00519188;8.36E-5;0.0298;87.7314;18.3601;225.8679;0;-3.6E-7;0;Intelsat
1.00519029;9.15E-5;0.0298;87.9951;18.8824;277.0452;0;-3.7E-7;0;Intelsat
1.00513369;9.93E-5;0.019;100.7977;19.4657;324.5316;0;-3.6E-7;0;Intelsat
1.0045501;0.000385;0.0286;70.8641;242.1376;66.8538;0;-2.8E-7;0;Intelsat
1.00440157;0.0005546;0.0371;54.8416;44.828;358.8078;0;-2.6E-7;0;Intelsat
1.00276602;0.0001122;0.032;32.9897;104.5168;246.8475;0;1.5E-7;0;Intelsat
1.00276856;8.24E-5;0.0323;35.0786;115.0816;319.8972;0;1.5E-7;0;Intelsat
1.00276064;8.4E-5;0.0328;34.8006;106.5396;204.8247;0;1.6E-7;0;Intelsat
1.00275771;9.36E-5;0.0329;34.8721;105.4899;257.6273;0;1.6E-7;0;Intelsat
1.00275799;7.76E-5;0.0334;36.6892;118.9568;115.5613;0;1.8E-7;0;Intelsat
1.00274338;8.1E-5;0.0356;27.0951;122.4284;154.2115;0;1.9E-7;0;Intelsat
1.00273989;9.46E-5;0.04;30.9346;117.3238;270.0507;0;1.9E-7;0;Intelsat
1.00274086;9.0E-5;0.0406;30.7543;122.1814;86.4749;0;2.1E-7;0;Intelsat
1.00273912;9.31E-5;0.041;30.8097;118.2378;266.5406;0;2.2E-7;0;Intelsat
1.00272421;8.51E-5;0.0437;19.6833;135.5661;151.6969;0;2.5E-7;0;Intelsat
1.00272409;8.86E-5;0.0122;123.6909;32.3909;237.2261;0;2.6E-7;0;Intelsat
1.00272353;8.97E-5;0.0123;123.7016;32.4799;250.1932;0;2.6E-7;0;Intelsat
1.00272596;6.75E-5;0.0121;131.4134;34.3143;243.4194;0;2.9E-7;0;Intelsat
1.00272904;6.46E-5;0.012;134.6075;29.2641;348.9314;0;3.0E-7;0;Intelsat
1.0027314;7.11E-5;0.009;146.9901;14.8193;250.1438;0;3.1E-7;0;Intelsat
1.00273697;7.22E-5;0.0124;148.7609;13.34;8.5335;0;3.6E-7;0;Intelsat
1.00269903;5.51E-5;0.0117;207.9642;28.5184;69.703;0;3.8E-7;0;Intelsat
1.0027115;5.6E-5;0.0112;189.759;52.6119;64.5869;0;3.7E-7;0;Intelsat
1.00272343;5.39E-5;0.0113;205.0067;105.403;37.7557;0;3.5E-7;0;Intelsat
1.00269583;3.44E-5;0.0096;242.2389;12.1486;93.1198;0;2.8E-7;0;Intelsat
1.00273542;4.32E-5;0.0036;347.2717;242.6037;178.4935;0;2.6E-7;0;Intelsat
1.00273542;4.32E-5;0.0036;347.2717;242.6037;178.4935;0;2.7E-7;0;Intelsat
1.00273652;4.31E-5;0.013;192.3339;37.5084;334.5241;0;2.5E-7;0;Intelsat
1.00273898;4.36E-5;0.0128;193.3554;36.5199;335.734;0;2.3E-7;0;Intelsat
1.00268874;2.64E-5;0.0175;217.905;46.925;53.6632;0;2.4E-7;0;Intelsat
1.00270466;4.14E-5;0.0166;231.2953;16.1057;91.5835;0;2.2E-7;0;Intelsat
1.00273737;3.01E-5;0.0065;186.7376;18.2261;178.8474;0;2.1E-7;0;Intelsat
1.0027077;3.01E-5;0.0066;186.724;18.2601;183.4208;0;2.1E-7;0;Intelsat
1.00270828;2.72E-5;0.0065;188.584;16.2921;194.4332;0;2.1E-7;0;Intelsat
1.00271178;2.8E-5;0.0065;190.3425;14.5565;188.8776;0;2.1E-7;0;Intelsat
1.00271495;2.84E-5;0.0064;190.6012;15.1142;141.6592;0;2.1E-7;0;Intelsat
1.00274167;2.76E-5;0.0084;178.2323;61.3152;267.4175;0;2.1E-7;0;Intelsat
